{
  "type": "FeatureCollection",
  "features": [
    {
      "type": "Feature",
      "properties": {
        "norad_id": 39617,
        "name": "ASTRA 5B (EGNOS/PRN 123)",
        "group": "gnss",
        "lat": 0.05574436041013043,
        "lon": 43.66187879814321,
        "alt_km": 35799.81827026208,
        "timestamp": "2025-12-18T19:29:52.787218+00:00",
        "meta_object_name": "ASTRA 5B (EGNOS/PRN 123)",
        "meta_object_id": "2014-011B",
        "meta_epoch": "2025-12-18T04:38:38.449248",
        "meta_mean_motion": 1.0027004,
        "meta_eccentricity": 0.00038578,
        "meta_inclination": 0.0433,
        "meta_ra_of_asc_node": 352.7745,
        "meta_arg_of_pericenter": 266.1928,
        "meta_mean_anomaly": 281.2642,
        "meta_ephemeris_type": 0,
        "meta_classification_type": "U",
        "meta_norad_cat_id": 39617,
        "meta_element_set_no": 999,
        "meta_rev_at_epoch": 4285,
        "meta_bstar": 0,
        "meta_mean_motion_dot": 1.62e-06,
        "meta_mean_motion_ddot": 0,
        "tle_line1": "1 39617U 14011B   25352.19350057  .00000162  00000+0  00000+0 0  9997",
        "tle_line2": "2 39617   0.0433 352.7745 0003857 266.1928 281.2642  1.00270040 42856"
      },
      "geometry": {
        "type": "Point",
        "coordinates": [
          43.66187879814321,
          0.05574436041013043
        ]
      }
    },
    {
      "type": "Feature",
      "properties": {
        "norad_id": 39620,
        "name": "COSMOS 2492 (754)",
        "group": "gnss",
        "lat": 60.51799469999039,
        "lon": 85.95942573465669,
        "alt_km": 19155.922366436233,
        "timestamp": "2025-12-18T19:29:52.787230+00:00",
        "meta_object_name": "COSMOS 2492 (754)",
        "meta_object_id": "2014-012A",
        "meta_epoch": "2025-12-18T04:53:42.056736",
        "meta_mean_motion": 2.13103354,
        "meta_eccentricity": 0.0014217,
        "meta_inclination": 65.4043,
        "meta_ra_of_asc_node": 320.0846,
        "meta_arg_of_pericenter": 312.4931,
        "meta_mean_anomaly": 47.3782,
        "meta_ephemeris_type": 0,
        "meta_classification_type": "U",
        "meta_norad_cat_id": 39620,
        "meta_element_set_no": 999,
        "meta_rev_at_epoch": 9138,
        "meta_bstar": 0,
        "meta_mean_motion_dot": -6.4e-07,
        "meta_mean_motion_ddot": 0,
        "tle_line1": "1 39620U 14012A   25352.20395899 -.00000064  00000+0  00000+0 0  9999",
        "tle_line2": "2 39620  65.4043 320.0846 0014217 312.4931  47.3782  2.13103354 91389"
      },
      "geometry": {
        "type": "Point",
        "coordinates": [
          85.95942573465669,
          60.51799469999039
        ]
      }
    },
    {
      "type": "Feature",
      "properties": {
        "norad_id": 39635,
        "name": "IRNSS-1B",
        "group": "gnss",
        "lat": -5.703208747599921,
        "lon": 73.82375803177834,
        "alt_km": 35742.76811501802,
        "timestamp": "2025-12-18T19:29:52.787241+00:00",
        "meta_object_name": "IRNSS-1B",
        "meta_object_id": "2014-017A",
        "meta_epoch": "2025-12-17T18:43:29.026848",
        "meta_mean_motion": 1.00270156,
        "meta_eccentricity": 0.00188771,
        "meta_inclination": 29.2563,
        "meta_ra_of_asc_node": 243.5188,
        "meta_arg_of_pericenter": 247.8275,
        "meta_mean_anomaly": 291.5675,
        "meta_ephemeris_type": 0,
        "meta_classification_type": "U",
        "meta_norad_cat_id": 39635,
        "meta_element_set_no": 999,
        "meta_rev_at_epoch": 4297,
        "meta_bstar": 0,
        "meta_mean_motion_dot": 1.47e-06,
        "meta_mean_motion_ddot": 0,
        "tle_line1": "1 39635U 14017A   25351.78019707  .00000147  00000+0  00000+0 0  9994",
        "tle_line2": "2 39635  29.2563 243.5188 0018877 247.8275 291.5675  1.00270156 42971"
      },
      "geometry": {
        "type": "Point",
        "coordinates": [
          73.82375803177834,
          -5.703208747599921
        ]
      }
    },
    {
      "type": "Feature",
      "properties": {
        "norad_id": 39727,
        "name": "LUCH 5V (SDCM/PRN 141)",
        "group": "gnss",
        "lat": 3.234648833002378,
        "lon": 114.69893397850036,
        "alt_km": 35804.74147630072,
        "timestamp": "2025-12-18T19:29:52.787253+00:00",
        "meta_object_name": "LUCH 5V (SDCM/PRN 141)",
        "meta_object_id": "2014-023A",
        "meta_epoch": "2025-12-18T06:53:47.192064",
        "meta_mean_motion": 1.0026764,
        "meta_eccentricity": 0.00043143,
        "meta_inclination": 4.6828,
        "meta_ra_of_asc_node": 71.4882,
        "meta_arg_of_pericenter": 211.3355,
        "meta_mean_anomaly": 2.4548,
        "meta_ephemeris_type": 0,
        "meta_classification_type": "U",
        "meta_norad_cat_id": 39727,
        "meta_element_set_no": 999,
        "meta_rev_at_epoch": 4254,
        "meta_bstar": 0,
        "meta_mean_motion_dot": -2.47e-06,
        "meta_mean_motion_ddot": 0,
        "tle_line1": "1 39727U 14023A   25352.28735176 -.00000247  00000+0  00000+0 0  9996",
        "tle_line2": "2 39727   4.6828  71.4882 0004314 211.3355   2.4548  1.00267640 42544"
      },
      "geometry": {
        "type": "Point",
        "coordinates": [
          114.69893397850036,
          3.234648833002378
        ]
      }
    },
    {
      "type": "Feature",
      "properties": {
        "norad_id": 39741,
        "name": "GPS BIIF-6  (PRN 06)",
        "group": "gnss",
        "lat": -47.1902726437541,
        "lon": -156.0100558630937,
        "alt_km": 20164.526252633834,
        "timestamp": "2025-12-18T19:29:52.787265+00:00",
        "meta_object_name": "GPS BIIF-6  (PRN 06)",
        "meta_object_id": "2014-026A",
        "meta_epoch": "2025-12-17T23:28:49.261152",
        "meta_mean_motion": 2.00561085,
        "meta_eccentricity": 0.00393157,
        "meta_inclination": 56.5816,
        "meta_ra_of_asc_node": 338.5726,
        "meta_arg_of_pericenter": 318.9878,
        "meta_mean_anomaly": 40.7245,
        "meta_ephemeris_type": 0,
        "meta_classification_type": "U",
        "meta_norad_cat_id": 39741,
        "meta_element_set_no": 999,
        "meta_rev_at_epoch": 8490,
        "meta_bstar": 0,
        "meta_mean_motion_dot": -8.4e-07,
        "meta_mean_motion_ddot": 0,
        "tle_line1": "1 39741U 14026A   25351.97834793 -.00000084  00000+0  00000+0 0  9994",
        "tle_line2": "2 39741  56.5816 338.5726 0039315 318.9878  40.7245  2.00561085 84906"
      },
      "geometry": {
        "type": "Point",
        "coordinates": [
          -156.0100558630937,
          -47.1902726437541
        ]
      }
    },
    {
      "type": "Feature",
      "properties": {
        "norad_id": 40001,
        "name": "COSMOS 2500 (755)",
        "group": "gnss",
        "lat": -22.79100079359705,
        "lon": -51.316365163893096,
        "alt_km": 19141.755666244753,
        "timestamp": "2025-12-18T19:29:52.787276+00:00",
        "meta_object_name": "COSMOS 2500 (755)",
        "meta_object_id": "2014-032A",
        "meta_epoch": "2025-12-17T21:45:50.523264",
        "meta_mean_motion": 2.13106065,
        "meta_eccentricity": 0.00080575,
        "meta_inclination": 65.3403,
        "meta_ra_of_asc_node": 319.8565,
        "meta_arg_of_pericenter": 219.1485,
        "meta_mean_anomaly": 140.7851,
        "meta_ephemeris_type": 0,
        "meta_classification_type": "U",
        "meta_norad_cat_id": 40001,
        "meta_element_set_no": 999,
        "meta_rev_at_epoch": 8959,
        "meta_bstar": 0,
        "meta_mean_motion_dot": -6.5e-07,
        "meta_mean_motion_ddot": 0,
        "tle_line1": "1 40001U 14032A   25351.90683476 -.00000065  00000+0  00000+0 0  9994",
        "tle_line2": "2 40001  65.3403 319.8565 0008057 219.1485 140.7851  2.13106065 89596"
      },
      "geometry": {
        "type": "Point",
        "coordinates": [
          -51.316365163893096,
          -22.79100079359705
        ]
      }
    },
    {
      "type": "Feature",
      "properties": {
        "norad_id": 40105,
        "name": "GPS BIIF-7  (PRN 09)",
        "group": "gnss",
        "lat": -0.011185163090741202,
        "lon": -84.33862206251568,
        "alt_km": 20138.084593652573,
        "timestamp": "2025-12-18T19:29:52.787288+00:00",
        "meta_object_name": "GPS BIIF-7  (PRN 09)",
        "meta_object_id": "2014-045A",
        "meta_epoch": "2025-12-16T13:40:35.692320",
        "meta_mean_motion": 2.00572829,
        "meta_eccentricity": 0.00326078,
        "meta_inclination": 55.2314,
        "meta_ra_of_asc_node": 95.7461,
        "meta_arg_of_pericenter": 119.9914,
        "meta_mean_anomaly": 240.3146,
        "meta_ephemeris_type": 0,
        "meta_classification_type": "U",
        "meta_norad_cat_id": 40105,
        "meta_element_set_no": 999,
        "meta_rev_at_epoch": 8241,
        "meta_bstar": 0,
        "meta_mean_motion_dot": -4.2e-07,
        "meta_mean_motion_ddot": 0,
        "tle_line1": "1 40105U 14045A   25350.56985755 -.00000042  00000+0  00000+0 0  9994",
        "tle_line2": "2 40105  55.2314  95.7461 0032607 119.9914 240.3146  2.00572829 82416"
      },
      "geometry": {
        "type": "Point",
        "coordinates": [
          -84.33862206251568,
          -0.011185163090741202
        ]
      }
    }
  ]
}